MALLIGYONG-1            
1 58400U 23179A   24148.20653423  .00006098  00000+0  26394-3 0  9992
2 58400  97.4058  35.3885 0008384 347.5693  12.5335 15.22757477 28538
